[{"OBJECT_NAME":"STARLINK-6231","OBJECT_ID":"2023-078N","EPOCH":"2026-03-09T21:23:57.873984","MEAN_MOTION":14.98330383,"ECCENTRICITY":0.00028313,"INCLINATION":70.0003,"RA_OF_ASC_NODE":323.953,"ARG_OF_PERICENTER":273.9274,"MEAN_ANOMALY":86.1561,"EPHEMERIS_TYPE":0,"CLASSIFICATION_TYPE":"U","NORAD_CAT_ID":56779,"ELEMENT_SET_NO":999,"REV_AT_EPOCH":15319,"BSTAR":9.082071e-6,"MEAN_MOTION_DOT":1.5e-7,"MEAN_MOTION_DDOT":0},{"OBJECT_NAME":"CZ-6A DEB","OBJECT_ID":"2022-151ADF","EPOCH":"2026-03-09T04:17:36.420864","MEAN_MOTION":14.87187722,"ECCENTRICITY":0.00591597,"INCLINATION":98.625,"RA_OF_ASC_NODE":143.8674,"ARG_OF_PERICENTER":184.385,"MEAN_ANOMALY":175.6853,"EPHEMERIS_TYPE":0,"CLASSIFICATION_TYPE":"U","NORAD_CAT_ID":56583,"ELEMENT_SET_NO":999,"REV_AT_EPOCH":15845,"BSTAR":0.004175752,"MEAN_MOTION_DOT":0.00038922,"MEAN_MOTION_DDOT":0}]
